LEMUR-2-ARIANNA         
1 62699U 25009CU  26064.20717485  .00010356  00000+0  81978-3 0  9990
2 62699  97.7018 146.5517 0004472 156.3640 203.7790 15.00782096 61954
LEMUR-2-ALISIA          
1 62706U 25009DB  26064.53816137  .00010029  00000+0  78829-3 0  9997
2 62706  97.7061 147.5321 0006388 169.2909 190.8452 15.01054328 84603
LEMUR-2-ROUNDTRIPPER    
1 62711U 25009DG  26064.23136086  .00011402  00000+0  87432-3 0  9994
2 62711  97.7306 147.1904 0004785 136.5683 223.5919 15.01969130 62018
LEMUR-2-MYNAMEISJEFF    
1 62712U 25009DH  26064.49638034  .00011820  00000+0  90633-3 0  9994
2 62712  97.7352 147.7739 0003962 161.9520 198.1846 15.01964897 62055
LEMUR-2-LEIA-PHILIP     
1 63246U 25052AN  26064.60358086  .00007598  00000+0  67215-3 0  9991
2 63246  97.6965 318.2670 0002832 191.0231 169.0929 14.96575725 53177
LEMUR-2-LIA-MARTIN      
1 63248U 25052AQ  26064.62544218  .00007635  00000+0  67248-3 0  9997
2 63248  97.7008 318.6474 0003237 154.3652 205.7731 14.96743382 53189
LEMUR-2-DELOITTE-1      
1 63259U 25052BB  26064.66104258  .00007098  00000+0  62555-3 0  9998
2 63259  97.7051 318.9945 0003273  87.2840 272.8757 14.96744811 53202
LEMUR-2-EMERSONROSE     
1 63261U 25052BD  26064.67109601  .00007600  00000+0  64534-3 0  9997
2 63261  97.7033 319.3559 0003192  59.5586 300.5952 14.98172264 53238
LEMUR-2-MARACHE-FRAN    
1 63262U 25052BE  26064.50304217  .00009213  00000+0  76810-3 0  9992
2 63262  97.6997 319.3801 0002346  43.6065 316.5343 14.98821458 53229
LEMUR-2-THEFALCONER     
1 63264U 25052BG  26064.20407684  .00006328  00000+0  56258-3 0  9991
2 63264  97.6992 318.2773 0002660  30.8100 329.3277 14.96446650 53132
LEMUR-2-UNTITLED-SC     
1 63351U 25061A   26064.46004795  .00006465  00000+0  37230-3 0  9993
2 63351  97.5555  40.6976 0017147 262.5509  97.3774 15.12641591 51904
LEMUR-2-ESPERANZA       
1 63352U 25061B   26064.50919642  .00005961  00000+0  34294-3 0  9992
2 63352  97.5559  40.8168 0016738 261.5598  98.3736 15.12717532 51915
LEMUR-2-KREMPEL-BRO2    
1 63353U 25061C   26064.49928317  .00006437  00000+0  36574-3 0  9992
2 63353  97.5604  41.2084 0017765 253.6217 106.3061 15.13121415 51922
LEMUR-2-THERMORAPTOR    
1 63354U 25061D   26064.61837824  .00007361  00000+0  41677-3 0  9996
2 63354  97.5613  41.3837 0017554 252.1652 107.7665 15.13200980 51945
LEMUR-2-NEUROSPICY      
1 63355U 25061E   26064.46559052  .00006942  00000+0  39237-3 0  9997
2 63355  97.5541  40.9396 0015222 256.6689 103.2845 15.13312702 51925
LEMUR-2-TILLINFINITY    
1 63356U 25061F   26064.40861778  .00007134  00000+0  39651-3 0  9997
2 63356  97.5525  41.1011 0016642 244.0271 115.9247 15.13887170 51933
