[{"OBJECT_NAME":"LEMUR-2-ARIANNA","OBJECT_ID":"2025-009CU","EPOCH":"2026-03-05T04:58:19.907040","MEAN_MOTION":15.00782096,"ECCENTRICITY":0.0004472,"INCLINATION":97.7018,"RA_OF_ASC_NODE":146.5517,"ARG_OF_PERICENTER":156.364,"MEAN_ANOMALY":203.779,"EPHEMERIS_TYPE":0,"CLASSIFICATION_TYPE":"U","NORAD_CAT_ID":62699,"ELEMENT_SET_NO":999,"REV_AT_EPOCH":6195,"BSTAR":0.00081977517,"MEAN_MOTION_DOT":0.00010356,"MEAN_MOTION_DDOT":0},{"OBJECT_NAME":"LEMUR-2-ALISIA","OBJECT_ID":"2025-009DB","EPOCH":"2026-03-05T12:54:57.142368","MEAN_MOTION":15.01054328,"ECCENTRICITY":0.00063882,"INCLINATION":97.7061,"RA_OF_ASC_NODE":147.5321,"ARG_OF_PERICENTER":169.2909,"MEAN_ANOMALY":190.8452,"EPHEMERIS_TYPE":0,"CLASSIFICATION_TYPE":"U","NORAD_CAT_ID":62706,"ELEMENT_SET_NO":999,"REV_AT_EPOCH":8460,"BSTAR":0.00078828862,"MEAN_MOTION_DOT":0.00010029,"MEAN_MOTION_DDOT":0},{"OBJECT_NAME":"LEMUR-2-ROUNDTRIPPER","OBJECT_ID":"2025-009DG","EPOCH":"2026-03-05T05:33:09.578304","MEAN_MOTION":15.0196913,"ECCENTRICITY":0.00047857,"INCLINATION":97.7306,"RA_OF_ASC_NODE":147.1904,"ARG_OF_PERICENTER":136.5683,"MEAN_ANOMALY":223.5919,"EPHEMERIS_TYPE":0,"CLASSIFICATION_TYPE":"U","NORAD_CAT_ID":62711,"ELEMENT_SET_NO":999,"REV_AT_EPOCH":6201,"BSTAR":0.00087432186,"MEAN_MOTION_DOT":0.00011402,"MEAN_MOTION_DDOT":0},{"OBJECT_NAME":"LEMUR-2-MYNAMEISJEFF","OBJECT_ID":"2025-009DH","EPOCH":"2026-03-05T11:54:47.261376","MEAN_MOTION":15.01964897,"ECCENTRICITY":0.00039627,"INCLINATION":97.7352,"RA_OF_ASC_NODE":147.7739,"ARG_OF_PERICENTER":161.952,"MEAN_ANOMALY":198.1846,"EPHEMERIS_TYPE":0,"CLASSIFICATION_TYPE":"U","NORAD_CAT_ID":62712,"ELEMENT_SET_NO":999,"REV_AT_EPOCH":6205,"BSTAR":0.00090633277,"MEAN_MOTION_DOT":0.0001182,"MEAN_MOTION_DDOT":0},{"OBJECT_NAME":"LEMUR-2-LEIA-PHILIP","OBJECT_ID":"2025-052AN","EPOCH":"2026-03-05T14:29:09.386304","MEAN_MOTION":14.96575725,"ECCENTRICITY":0.00028321,"INCLINATION":97.6965,"RA_OF_ASC_NODE":318.267,"ARG_OF_PERICENTER":191.0231,"MEAN_ANOMALY":169.0929,"EPHEMERIS_TYPE":0,"CLASSIFICATION_TYPE":"U","NORAD_CAT_ID":63246,"ELEMENT_SET_NO":999,"REV_AT_EPOCH":5317,"BSTAR":0.00067214756,"MEAN_MOTION_DOT":7.598e-5,"MEAN_MOTION_DDOT":0},{"OBJECT_NAME":"LEMUR-2-LIA-MARTIN","OBJECT_ID":"2025-052AQ","EPOCH":"2026-03-05T15:00:38.204352","MEAN_MOTION":14.96743382,"ECCENTRICITY":0.00032372,"INCLINATION":97.7008,"RA_OF_ASC_NODE":318.6474,"ARG_OF_PERICENTER":154.3652,"MEAN_ANOMALY":205.7731,"EPHEMERIS_TYPE":0,"CLASSIFICATION_TYPE":"U","NORAD_CAT_ID":63248,"ELEMENT_SET_NO":999,"REV_AT_EPOCH":5318,"BSTAR":0.00067248412,"MEAN_MOTION_DOT":7.635e-5,"MEAN_MOTION_DDOT":0},{"OBJECT_NAME":"LEMUR-2-DELOITTE-1","OBJECT_ID":"2025-052BB","EPOCH":"2026-03-05T15:51:54.078912","MEAN_MOTION":14.96744811,"ECCENTRICITY":0.00032734,"INCLINATION":97.7051,"RA_OF_ASC_NODE":318.9945,"ARG_OF_PERICENTER":87.284,"MEAN_ANOMALY":272.8757,"EPHEMERIS_TYPE":0,"CLASSIFICATION_TYPE":"U","NORAD_CAT_ID":63259,"ELEMENT_SET_NO":999,"REV_AT_EPOCH":5320,"BSTAR":0.00062554546,"MEAN_MOTION_DOT":7.098e-5,"MEAN_MOTION_DDOT":0},{"OBJECT_NAME":"LEMUR-2-EMERSONROSE","OBJECT_ID":"2025-052BD","EPOCH":"2026-03-05T16:06:22.695264","MEAN_MOTION":14.98172264,"ECCENTRICITY":0.00031927,"INCLINATION":97.7033,"RA_OF_ASC_NODE":319.3559,"ARG_OF_PERICENTER":59.5586,"MEAN_ANOMALY":300.5952,"EPHEMERIS_TYPE":0,"CLASSIFICATION_TYPE":"U","NORAD_CAT_ID":63261,"ELEMENT_SET_NO":999,"REV_AT_EPOCH":5323,"BSTAR":0.00064534078,"MEAN_MOTION_DOT":7.6e-5,"MEAN_MOTION_DDOT":0},{"OBJECT_NAME":"LEMUR-2-MARACHE-FRAN","OBJECT_ID":"2025-052BE","EPOCH":"2026-03-05T12:04:22.843488","MEAN_MOTION":14.98821458,"ECCENTRICITY":0.00023469,"INCLINATION":97.6997,"RA_OF_ASC_NODE":319.3801,"ARG_OF_PERICENTER":43.6065,"MEAN_ANOMALY":316.5343,"EPHEMERIS_TYPE":0,"CLASSIFICATION_TYPE":"U","NORAD_CAT_ID":63262,"ELEMENT_SET_NO":999,"REV_AT_EPOCH":5322,"BSTAR":0.00076809762,"MEAN_MOTION_DOT":9.213e-5,"MEAN_MOTION_DDOT":0},{"OBJECT_NAME":"LEMUR-2-THEFALCONER","OBJECT_ID":"2025-052BG","EPOCH":"2026-03-05T04:53:52.238976","MEAN_MOTION":14.9644665,"ECCENTRICITY":0.00026601,"INCLINATION":97.6992,"RA_OF_ASC_NODE":318.2773,"ARG_OF_PERICENTER":30.81,"MEAN_ANOMALY":329.3277,"EPHEMERIS_TYPE":0,"CLASSIFICATION_TYPE":"U","NORAD_CAT_ID":63264,"ELEMENT_SET_NO":999,"REV_AT_EPOCH":5313,"BSTAR":0.00056258377,"MEAN_MOTION_DOT":6.328e-5,"MEAN_MOTION_DDOT":0},{"OBJECT_NAME":"LEMUR-2-UNTITLED-SC","OBJECT_ID":"2025-061A","EPOCH":"2026-03-05T11:02:28.142880","MEAN_MOTION":15.12641591,"ECCENTRICITY":0.00171473,"INCLINATION":97.5555,"RA_OF_ASC_NODE":40.6976,"ARG_OF_PERICENTER":262.5509,"MEAN_ANOMALY":97.3774,"EPHEMERIS_TYPE":0,"CLASSIFICATION_TYPE":"U","NORAD_CAT_ID":63351,"ELEMENT_SET_NO":999,"REV_AT_EPOCH":5190,"BSTAR":0.0003723033,"MEAN_MOTION_DOT":6.465e-5,"MEAN_MOTION_DDOT":0},{"OBJECT_NAME":"LEMUR-2-ESPERANZA","OBJECT_ID":"2025-061B","EPOCH":"2026-03-05T12:13:14.570688","MEAN_MOTION":15.12717532,"ECCENTRICITY":0.00167382,"INCLINATION":97.5559,"RA_OF_ASC_NODE":40.8168,"ARG_OF_PERICENTER":261.5598,"MEAN_ANOMALY":98.3736,"EPHEMERIS_TYPE":0,"CLASSIFICATION_TYPE":"U","NORAD_CAT_ID":63352,"ELEMENT_SET_NO":999,"REV_AT_EPOCH":5191,"BSTAR":0.0003429379,"MEAN_MOTION_DOT":5.961e-5,"MEAN_MOTION_DDOT":0},{"OBJECT_NAME":"LEMUR-2-KREMPEL-BRO2","OBJECT_ID":"2025-061C","EPOCH":"2026-03-05T11:58:58.065888","MEAN_MOTION":15.13121415,"ECCENTRICITY":0.00177652,"INCLINATION":97.5604,"RA_OF_ASC_NODE":41.2084,"ARG_OF_PERICENTER":253.6217,"MEAN_ANOMALY":106.3061,"EPHEMERIS_TYPE":0,"CLASSIFICATION_TYPE":"U","NORAD_CAT_ID":63353,"ELEMENT_SET_NO":999,"REV_AT_EPOCH":5192,"BSTAR":0.000365743,"MEAN_MOTION_DOT":6.437e-5,"MEAN_MOTION_DDOT":0},{"OBJECT_NAME":"LEMUR-2-THERMORAPTOR","OBJECT_ID":"2025-061D","EPOCH":"2026-03-05T14:50:27.879936","MEAN_MOTION":15.1320098,"ECCENTRICITY":0.00175542,"INCLINATION":97.5613,"RA_OF_ASC_NODE":41.3837,"ARG_OF_PERICENTER":252.1652,"MEAN_ANOMALY":107.7665,"EPHEMERIS_TYPE":0,"CLASSIFICATION_TYPE":"U","NORAD_CAT_ID":63354,"ELEMENT_SET_NO":999,"REV_AT_EPOCH":5194,"BSTAR":0.00041676546,"MEAN_MOTION_DOT":7.361e-5,"MEAN_MOTION_DDOT":0},{"OBJECT_NAME":"LEMUR-2-NEUROSPICY","OBJECT_ID":"2025-061E","EPOCH":"2026-03-05T11:10:27.020928","MEAN_MOTION":15.13312702,"ECCENTRICITY":0.00152223,"INCLINATION":97.5541,"RA_OF_ASC_NODE":40.9396,"ARG_OF_PERICENTER":256.6689,"MEAN_ANOMALY":103.2845,"EPHEMERIS_TYPE":0,"CLASSIFICATION_TYPE":"U","NORAD_CAT_ID":63355,"ELEMENT_SET_NO":999,"REV_AT_EPOCH":5192,"BSTAR":0.00039236921,"MEAN_MOTION_DOT":6.942e-5,"MEAN_MOTION_DDOT":0},{"OBJECT_NAME":"LEMUR-2-TILLINFINITY","OBJECT_ID":"2025-061F","EPOCH":"2026-03-05T09:48:24.576192","MEAN_MOTION":15.1388717,"ECCENTRICITY":0.0016642,"INCLINATION":97.5525,"RA_OF_ASC_NODE":41.1011,"ARG_OF_PERICENTER":244.0271,"MEAN_ANOMALY":115.9247,"EPHEMERIS_TYPE":0,"CLASSIFICATION_TYPE":"U","NORAD_CAT_ID":63356,"ELEMENT_SET_NO":999,"REV_AT_EPOCH":5193,"BSTAR":0.00039651307,"MEAN_MOTION_DOT":7.134e-5,"MEAN_MOTION_DDOT":0}]
